NORAD_CAT_ID,OBJECT_NAME,OBJECT_TYPE,EPOCH,MEAN_MOTION,ECCENTRICITY,INCLINATION,RA_OF_ASC_NODE,ARG_OF_PERICENTER,MEAN_ANOMALY,BSTAR,MEAN_MOTION_DOT,MEAN_MOTION_DDOT,TLE_LINE0,TLE_LINE1,TLE_LINE2,SEMIMAJOR_AXIS,PERIOD,APOGEE,PERIGEE,DECAYED
55963.0,STARLINK-5924,PAYLOAD,2024-04-06 15:19:39,14.98328349,0.0003398,69.9993,234.5365,270.0208,90.0562,-5.7606e-06,-1.62e-06,0.0,0 STARLINK-5924,1 55963U 23037BB  24097.63864783 -.00000162  00000-0 -57606-5 0  9990,2 55963  69.9993 234.5365 0003398 270.0208  90.0562 14.98328349 59316,6950.198,96.107,574.425,569.701,0.0
55963.0,STARLINK-5924,PAYLOAD,2024-04-07 08:57:07,14.98338459,0.0003151,69.9992,232.6846,271.56,88.5198,-4.3236e-05,-6.09e-06,0.0,0 STARLINK-5924,1 55963U 23037BB  24098.37300327 -.00000609  00000-0 -43236-4 0  9990,2 55963  69.9992 232.6846 0003151 271.5600  88.5198 14.98338459 59766,6950.167,96.106,574.222,569.842,0.0
55963.0,STARLINK-5924,PAYLOAD,2024-04-08 10:35:16,14.98331669,0.000304,70.0005,229.9928,272.9489,87.1322,7.189e-05,7.65e-06,0.0,0 STARLINK-5924,1 55963U 23037BB  24099.44116504  .00000765  00000-0  71890-4 0  9999,2 55963  70.0005 229.9928 0003040 272.9489  87.1322 14.98331669 59929,6950.188,96.107,574.166,569.94,0.0
55963.0,STARLINK-5924,PAYLOAD,2024-04-08 15:23:40,14.9833485,0.000303,70.0002,229.4866,270.2254,89.8557,8.9283e-05,9.73e-06,0.0,0 STARLINK-5924,1 55963U 23037BB  24099.64144216  .00000973  00000-0  89283-4 0  9998,2 55963  70.0002 229.4866 0003030 270.2254  89.8557 14.98334850 59612,6950.178,96.107,574.149,569.937,0.0
55963.0,STARLINK-5924,PAYLOAD,2024-04-09 10:37:17,14.98334946,0.000301,70.0001,227.4667,270.4002,89.6813,3.4858e-05,3.23e-06,0.0,0 STARLINK-5924,1 55963U 23037BB  24100.44256122  .00000323  00000-0  34858-4 0  9996,2 55963  70.0001 227.4667 0003010 270.4002  89.6813 14.98334946 60070,6950.178,96.107,574.135,569.951,0.0
55963.0,STARLINK-5924,PAYLOAD,2024-04-09 15:25:41,14.98336489,0.0003106,69.9999,226.9627,268.8348,91.2455,5.3689e-05,5.48e-06,0.0,0 STARLINK-5924,1 55963U 23037BB  24100.64283913  .00000548  00000-0  53689-4 0  9998,2 55963  69.9999 226.9627 0003106 268.8348  91.2455 14.98336489 59762,6950.173,96.107,574.197,569.879,0.0
55963.0,STARLINK-5924,PAYLOAD,2024-04-10 10:39:18,14.98332354,0.0003125,70.0003,224.9431,269.1098,90.9702,1.2702e-05,5.9e-07,0.0,0 STARLINK-5924,1 55963U 23037BB  24101.44396076  .00000059  00000-0  12702-4 0  9990,2 55963  70.0003 224.9431 0003125 269.1098  90.9702 14.98332354 60220,6950.186,96.107,574.223,569.879,0.0
55963.0,STARLINK-5924,PAYLOAD,2024-04-10 18:39:58,14.9833496,0.0002916,70.0009,224.1025,266.5464,93.5361,2.9306e-05,2.57e-06,0.0,0 STARLINK-5924,1 55963U 23037BB  24101.77775782  .00000257  00000-0  29306-4 0  9999,2 55963  70.0009 224.1025 0002916 266.5464  93.5361 14.98334960 59933,6950.178,96.107,574.069,570.016,0.0
55963.0,STARLINK-5924,PAYLOAD,2024-04-11 13:53:35,14.9833118,0.0002808,70.0013,222.0821,269.7293,90.3544,-3.0811e-06,-1.3e-06,0.0,0 STARLINK-5924,1 55963U 23037BB  24102.57888065 -.00000130  00000-0 -30811-5 0  9993,2 55963  70.0013 222.0821 0002808 269.7293  90.3544 14.98331180 60395,6950.189,96.107,574.006,570.103,0.0
55963.0,STARLINK-5924,PAYLOAD,2024-04-11 17:05:51,14.98330072,0.0002894,70.001,221.7458,268.0397,92.0431,-1.0113e-05,-2.14e-06,0.0,0 STARLINK-5924,1 55963U 23037BB  24102.71240147 -.00000214  00000-0 -10113-4 0  9997,2 55963  70.0010 221.7458 0002894 268.0397  92.0431 14.98330072 60074,6950.193,96.107,574.069,570.046,0.0
55963.0,STARLINK-5924,PAYLOAD,2024-04-12 13:55:36,14.98331506,0.0002997,70.001,219.5576,268.9675,91.114,1.6886e-05,1.09e-06,0.0,0 STARLINK-5924,1 55963U 23037BB  24103.58027961  .00000109  00000-0  16886-4 0  9994,2 55963  70.0010 219.5576 0002997 268.9675  91.1140 14.98331506 60207,6950.188,96.107,574.136,569.97,0.0
55963.0,STARLINK-5924,PAYLOAD,2024-04-12 15:31:44,14.98333098,0.0002973,70.001,219.3893,268.8498,91.2321,3.5633e-05,3.32e-06,0.0,0 STARLINK-5924,1 55963U 23037BB  24103.64703798  .00000332  00000-0  35633-4 0  9999,2 55963  70.0010 219.3893 0002973 268.8498  91.2321 14.98333098 60551,6950.183,96.107,574.115,569.982,0.0
55963.0,STARLINK-5924,PAYLOAD,2024-04-13 13:57:37,14.983302,0.0003066,70.0009,217.0328,269.563,90.5178,6.1364e-05,6.39e-06,0.0,0 STARLINK-5924,1 55963U 23037BB  24104.58167889  .00000639  00000-0  61364-4 0  9998,2 55963  70.0009 217.0328 0003066 269.5630  90.5178 14.98330200 60359,6950.192,96.107,574.188,569.926,0.0
55963.0,STARLINK-5924,PAYLOAD,2024-04-13 17:09:53,14.98332228,0.0003055,70.0009,216.6961,269.4989,90.582,8.1507e-05,8.8e-06,0.0,0 STARLINK-5924,1 55963U 23037BB  24104.71519696  .00000880  00000-0  81507-4 0  9999,2 55963  70.0009 216.6961 0003055 269.4989  90.5820 14.98332228 60717,6950.186,96.107,574.174,569.928,0.0
55963.0,STARLINK-5924,PAYLOAD,2024-04-14 12:23:32,14.98298753,0.0003389,70.0008,214.6758,278.9725,81.1051,-0.00030751,-3.757e-05,0.0,0 STARLINK-5924,1 55963U 23037BB  24105.51635035 -.00003757  00000-0 -30751-3 0  9996,2 55963  70.0008 214.6758 0003389 278.9725  81.1051 14.98298753 60830,6950.29,96.109,574.51,569.799,0.0
55963.0,STARLINK-5924,PAYLOAD,2024-04-14 17:11:56,14.98300859,0.0002929,70.0016,214.1727,260.6949,99.3878,-0.00028459,-3.484e-05,0.0,0 STARLINK-5924,1 55963U 23037BB  24105.71663080 -.00003484  00000-0 -28459-3 0  9998,2 55963  70.0016 214.1727 0002929 260.6949  99.3878 14.98300859 60520,6950.283,96.109,574.184,570.112,0.0
55963.0,STARLINK-5924,PAYLOAD,2024-04-15 10:49:23,14.98328305,0.0002798,70.0025,212.3219,261.9789,98.1053,7.5126e-05,8.04e-06,0.0,0 STARLINK-5924,1 55963U 23037BB  24106.45096952  .00000804  00000-0  75126-4 0  9993,2 55963  70.0025 212.3219 0002798 261.9789  98.1053 14.98328305 60973,6950.198,96.107,574.008,570.118,0.0
55963.0,STARLINK-5924,PAYLOAD,2024-04-15 14:01:39,14.98332458,0.0002511,70.003,211.9856,242.0883,118.0022,0.00012669,1.419e-05,0.0,0 STARLINK-5924,1 55963U 23037BB  24106.58448577  .00001419  00000-0  12669-3 0  9996,2 55963  70.0030 211.9856 0002511 242.0883 118.0022 14.98332458 60656,6950.185,96.107,573.795,570.305,0.0
55963.0,STARLINK-5924,PAYLOAD,2024-04-15 17:13:53,14.98352523,0.0002874,70.0028,211.6482,260.7283,99.3551,0.00034998,4.088e-05,0.0,0 STARLINK-5924,1 55963U 23037BB  24106.71798607  .00004088  00000-0  34998-3 0  9997,2 55963  70.0028 211.6482 0002874 260.7283  99.3551 14.98352523 61012,6950.123,96.106,573.986,569.991,0.0
55963.0,STARLINK-5924,PAYLOAD,2024-04-15 23:38:26,14.98345424,0.0003438,70.0024,210.9738,266.2511,93.8255,0.00027399,3.179e-05,0.0,0 STARLINK-5924,1 55963U 23037BB  24106.98502835  .00003179  00000-0  27399-3 0  9999,2 55963  70.0024 210.9738 0003438 266.2511  93.8255 14.98345424 61052,6950.145,96.106,574.4,569.621,0.0
55963.0,STARLINK-5924,PAYLOAD,2024-04-16 10:51:23,14.98321742,0.0002609,70.0026,209.7995,246.0767,114.0119,0.00043546,5.105e-05,0.0,0 STARLINK-5924,1 55963U 23037BB  24107.45236014  .00005105  00000-0  43546-3 0  9998,2 55963  70.0026 209.7995 0002609 246.0767 114.0119 14.98321742 61123,6950.218,96.108,573.897,570.27,0.0
55963.0,STARLINK-5924,PAYLOAD,2024-04-16 14:03:39,14.9832387,0.000259,70.0025,209.4626,245.2642,114.8247,0.00044143,5.177e-05,0.0,0 STARLINK-5924,1 55963U 23037BB  24107.58587948  .00005177  00000-0  44143-3 0  9990,2 55963  70.0025 209.4626 0002590 245.2642 114.8247 14.98323870 60800,6950.212,96.107,573.877,570.277,0.0
55963.0,STARLINK-5924,PAYLOAD,2024-04-16 17:15:55,14.98325144,0.0002639,70.0027,209.1266,247.2832,112.8048,0.00048576,5.707e-05,0.0,0 STARLINK-5924,1 55963U 23037BB  24107.71939768  .00005707  00000-0  48576-3 0  9999,2 55963  70.0027 209.1266 0002639 247.2832 112.8048 14.98325144 60821,6950.208,96.107,573.907,570.239,0.0
55963.0,STARLINK-5924,PAYLOAD,2024-04-17 12:29:32,14.98336463,0.0002438,70.0029,207.1037,242.6642,117.4269,2.9366e-05,2.58e-06,0.0,0 STARLINK-5924,1 55963U 23037BB  24108.52051705  .00000258  00000-0  29366-4 0  9998,2 55963  70.0029 207.1037 0002438 242.6642 117.4269 14.98336463 61285,6950.173,96.107,573.732,570.343,0.0
55963.0,STARLINK-5924,PAYLOAD,2024-04-17 14:05:40,14.98337372,0.0002496,70.0029,206.9355,249.4822,110.607,-8.1722e-06,-1.9e-06,0.0,0 STARLINK-5924,1 55963U 23037BB  24108.58727709 -.00000190  00000-0 -81722-5 0  9990,2 55963  70.0029 206.9355 0002496 249.4822 110.6070 14.98337372 60952,6950.17,96.107,573.77,570.3,0.0
55963.0,STARLINK-5924,PAYLOAD,2024-04-17 15:41:48,14.98346241,0.0002818,70.0012,206.7657,265.5178,94.5659,-6.1426e-05,-8.26e-06,0.0,0 STARLINK-5924,1 55963U 23037BB  24108.65403235 -.00000826  00000-0 -61426-4 0  9997,2 55963  70.0012 206.7657 0002818 265.5178  94.5659 14.98346241 61306,6950.143,96.106,573.966,570.049,0.0
55963.0,STARLINK-5924,PAYLOAD,2024-04-18 12:31:34,14.98326017,0.0002645,70.0023,204.5793,233.5889,126.5026,-0.00011397,-1.452e-05,0.0,0 STARLINK-5924,1 55963U 23037BB  24109.52192204 -.00001452  00000-0 -11397-3 0  9992,2 55963  70.0023 204.5793 0002645 233.5889 126.5026 14.98326017 61434,6950.205,96.107,573.909,570.232,0.0
55963.0,STARLINK-5924,PAYLOAD,2024-04-18 15:43:50,14.9832381,0.0002619,70.002,204.2422,238.8475,121.2428,-0.00012465,-1.58e-05,0.0,0 STARLINK-5924,1 55963U 23037BB  24109.65544429 -.00001580  00000-0 -12465-3 0  9995,2 55963  70.0020 204.2422 0002619 238.8475 121.2428 14.98323810 61118,6950.212,96.107,573.897,570.257,0.0
55963.0,STARLINK-5924,PAYLOAD,2024-04-19 12:33:34,14.983324,0.0002907,70.0017,202.0541,255.1127,104.971,9.783e-05,1.075e-05,0.0,0 STARLINK-5924,1 55963U 23037BB  24110.52331330  .00001075  00000-0  97830-4 0  9995,2 55963  70.0017 202.0541 0002907 255.1127 104.9710 14.98332400 61586,6950.185,96.107,574.071,570.03,0.0
55963.0,STARLINK-5924,PAYLOAD,2024-04-19 14:09:41,14.98336907,0.0002818,70.0017,201.8853,246.5916,113.4946,0.00014031,1.582e-05,0.0,0 STARLINK-5924,1 55963U 23037BB  24110.59006883  .00001582  00000-0  14031-3 0  9998,2 55963  70.0017 201.8853 0002818 246.5916 113.4946 14.98336907 61256,6950.172,96.107,573.995,570.078,0.0
